JILIN-1 GAOFEN 3A       
1 44312U 19032C   26068.74542089  .00016264  00000+0  55381-3 0  9993
2 44312  44.9746 183.2861 0002618 111.2900 248.8263 15.30271310372592
STARLINK-33737          
1 63456U 25069Z   26068.47815767  .00022307  00000+0  76331-3 0  9999
2 63456  53.1584 143.3420 0000960  92.8182 267.2928 15.30187680 53265
